IRIDIUM 135             
1 43070U 17083A   26194.31475944  .00000137  00000+0  41883-4 0  9990
2 43070  86.3983 311.0935 0002182  94.0172 266.1274 14.34218255447896
IRIDIUM 138             
1 43071U 17083B   26194.27036064  .00000140  00000+0  42909-4 0  9996
2 43071  86.3998 310.8114 0002064  92.0236 268.1196 14.34218218447879
IRIDIUM 116             
1 43072U 17083C   26194.30841503  .00000139  00000+0  42667-4 0  9992
2 43072  86.3985 311.0819 0002435  99.2521 260.8950 14.34217448447915
IRIDIUM 130             
1 43073U 17083D   26194.27670613  .00000130  00000+0  39458-4 0  9996
2 43073  86.3992 311.3730 0002226 100.8626 259.2821 14.34217466447854
IRIDIUM 151             
1 43074U 17083E   26194.32110236  .00000143  00000+0  44063-4 0  9995
2 43074  86.3986 311.1348 0002241  95.3131 264.8320 14.34217803447881
IRIDIUM 134             
1 43075U 17083F   26194.28938862  .00000123  00000+0  36817-4 0  9990
2 43075  86.3986 311.1565 0002203  95.6303 264.5144 14.34218247447845
IRIDIUM 137             
1 43076U 17083G   26193.81369583  .00000132  00000+0  40113-4 0  9991
2 43076  86.3989 311.4486 0002663  94.2144 265.9357 14.34218094447843
IRIDIUM 141             
1 43077U 17083H   26194.29573056  .00000134  00000+0  40629-4 0  9991
2 43077  86.3984 311.0763 0002160  93.7939 266.3503 14.34217790447919
IRIDIUM 153             
1 43078U 17083J   26194.31767836  .00000065  00000+0  15988-4 0  9999
2 43078  86.3960 279.5468 0002114  94.4077 265.7361 14.34217742449020
IRIDIUM 131             
1 43079U 17083K   26194.28304719  .00000052  00000+0  11630-4 0  9999
2 43079  86.3990 311.2691 0002261  92.7990 267.3465 14.34217724447845
IRIDIUM 144             
1 43249U 18030A   26194.32402134  .00000056  00000+0  12863-4 0  9999
2 43249  86.3957 279.4726 0002382  97.8417 262.3049 14.34217778433886
IRIDIUM 149             
1 43250U 18030B   26193.77221599  .00000113  00000+0  33394-4 0  9999
2 43250  86.3958 279.6700 0002250  93.4321 266.7132 14.34217836433823
IRIDIUM 157             
1 43251U 18030C   26194.20985722  .00000137  00000+0  41893-4 0  9993
2 43251  86.3961 279.5410 0002259  94.2415 265.9039 14.34217569433861
IRIDIUM 140             
1 43252U 18030D   26193.74050474  .00000149  00000+0  46127-4 0  9997
2 43252  86.3960 279.7497 0002231  95.7423 264.4028 14.34217052433851
IRIDIUM 145             
1 43253U 18030E   26193.72781600  .00000137  00000+0  41833-4 0  9994
2 43253  86.3959 279.7269 0002472 100.6657 259.4817 14.34217167433788
IRIDIUM 146             
1 43254U 18030F   26194.26693753  .00000062  00000+0  15189-4 0  9998
2 43254  86.3959 279.5140 0002359  96.8751 263.2714 14.34217435433877
IRIDIUM 148             
1 43255U 18030G   26194.30499666  .00000149  00000+0  46108-4 0  9992
2 43255  86.3961 279.5414 0002348  94.0252 266.1213 14.34217625433911
IRIDIUM 142             
1 43256U 18030H   26194.20351236  .00000111  00000+0  32706-4 0  9990
2 43256  86.3955 279.4720 0002405  97.6467 262.5002 14.34218017433861
IRIDIUM 150             
1 43257U 18030J   26194.31133276 -.00000204  00000+0 -79982-4 0  9997
2 43257  86.3959 279.5438 0002118  96.3708 263.7729 14.34216194433906
IRIDIUM 143             
1 43258U 18030K   26193.73416068  .00000072  00000+0  18596-4 0  9991
2 43258  86.3963 279.8786 0002314  96.3911 263.7548 14.34217359433751
IRIDIUM 161             
1 43478U 18047C   26192.15744448  .00000172  00000+0  45078-4 0  9990
2 43478  86.4467  78.4474 0002306  78.8180 281.3280 14.43284936428596
IRIDIUM 152             
1 43479U 18047D   26194.19526039  .00000149  00000+0  46182-4 0  9992
2 43479  86.3938  77.4561 0002132  83.5824 276.5614 14.34219718426210
IRIDIUM 147             
1 43480U 18047E   26194.20159913  .00000148  00000+0  45839-4 0  9996
2 43480  86.3940  77.4591 0002265  88.2952 271.8503 14.34217516426218
IRIDIUM 110             
1 43481U 18047F   26193.99863789  .00000146  00000+0  45155-4 0  9994
2 43481  86.3943  77.6367 0002156  76.5156 283.6280 14.34217966426177
IRIDIUM 162             
1 43482U 18047G   26191.11118814  .00000189  00000+0  50126-4 0  9990
2 43482  86.4467  78.7759 0002187  84.2783 275.8667 14.43283456428433
IRIDIUM 160             
1 43569U 18061A   26194.01423985  .00000123  00000+0  36777-4 0  9996
2 43569  86.3942  45.9944 0002221  85.9208 274.2242 14.34216471417070
IRIDIUM 166             
1 43570U 18061B   26192.50470310  .00000031  00000+0  39317-5 0  9996
2 43570  86.3940  46.5761 0002260  89.6407 270.5047 14.34217869416881
IRIDIUM 158             
1 43571U 18061C   26194.00789914  .00000059  00000+0  13891-4 0  9995
2 43571  86.3940  45.9570 0002061  86.4900 273.6532 14.34217395417063
IRIDIUM 165             
1 43572U 18061D   26193.54488934  .00000091  00000+0  25565-4 0  9999
2 43572  86.3942  46.1976 0002266  90.8182 269.3273 14.34217303417026
IRIDIUM 155             
1 43573U 18061E   26193.99521353  .00000080  00000+0  21377-4 0  9997
2 43573  86.3939  45.8772 0002101  89.0391 271.1045 14.34217272417059
