OBJECT_NAME,OBJECT_ID,EPOCH,MEAN_MOTION,ECCENTRICITY,INCLINATION,RA_OF_ASC_NODE,ARG_OF_PERICENTER,MEAN_ANOMALY,EPHEMERIS_TYPE,CLASSIFICATION_TYPE,NORAD_CAT_ID,ELEMENT_SET_NO,REV_AT_EPOCH,BSTAR,MEAN_MOTION_DOT,MEAN_MOTION_DDOT
IRIDIUM 135,2017-083A,2026-07-13T07:33:15.215616,14.34218255,.00021829,86.3983,311.0935,94.0172,266.1274,0,U,43070,999,44789,.41882857E-4,.137E-5,0
IRIDIUM 138,2017-083B,2026-07-13T06:29:19.159296,14.34218218,.00020642,86.3998,310.8114,92.0236,268.1196,0,U,43071,999,44787,.42909277E-4,.14E-5,0
IRIDIUM 116,2017-083C,2026-07-13T07:24:07.058592,14.34217448,.00024352,86.3985,311.0819,99.2521,260.8950,0,U,43072,999,44791,.42667247E-4,.139E-5,0
IRIDIUM 130,2017-083D,2026-07-13T06:38:27.409632,14.34217466,.00022262,86.3992,311.3730,100.8626,259.2821,0,U,43073,999,44785,.39458144E-4,.13E-5,0
IRIDIUM 151,2017-083E,2026-07-13T07:42:23.243904,14.34217803,.00022411,86.3986,311.1348,95.3131,264.8320,0,U,43074,999,44788,.4406335E-4,.143E-5,0
IRIDIUM 134,2017-083F,2026-07-13T06:56:43.176768,14.34218247,.00022031,86.3986,311.1565,95.6303,264.5144,0,U,43075,999,44784,.36817424E-4,.123E-5,0
IRIDIUM 137,2017-083G,2026-07-12T19:31:43.319712,14.34218094,.00026639,86.3989,311.4486,94.2144,265.9357,0,U,43076,999,44784,.40112832E-4,.132E-5,0
IRIDIUM 141,2017-083H,2026-07-13T07:05:51.120384,14.34217790,.00021608,86.3984,311.0763,93.7939,266.3503,0,U,43077,999,44791,.4062901E-4,.134E-5,0
IRIDIUM 153,2017-083J,2026-07-13T07:37:27.410304,14.34217742,.00021149,86.3960,279.5468,94.4077,265.7361,0,U,43078,999,44902,.1598808E-4,.65E-6,0
IRIDIUM 131,2017-083K,2026-07-13T06:47:35.277216,14.34217724,.00022619,86.3990,311.2691,92.7990,267.3465,0,U,43079,999,44784,.11630002E-4,.52E-6,0
IRIDIUM 144,2018-030A,2026-07-13T07:46:35.443776,14.34217778,.00023821,86.3957,279.4726,97.8417,262.3049,0,U,43249,999,43388,.12863208E-4,.56E-6,0
IRIDIUM 149,2018-030B,2026-07-12T18:31:59.461536,14.34217836,.00022503,86.3958,279.6700,93.4321,266.7132,0,U,43250,999,43382,.33394451E-4,.113E-5,0
IRIDIUM 157,2018-030C,2026-07-13T05:02:11.663808,14.34217569,.0002259,86.3961,279.5410,94.2415,265.9039,0,U,43251,999,43386,.41892726E-4,.137E-5,0
IRIDIUM 140,2018-030D,2026-07-12T17:46:19.609536,14.34217052,.00022316,86.3960,279.7497,95.7423,264.4028,0,U,43252,999,43385,.46127484E-4,.149E-5,0
IRIDIUM 145,2018-030E,2026-07-12T17:28:03.302400,14.34217167,.00024729,86.3959,279.7269,100.6657,259.4817,0,U,43253,999,43378,.41832735E-4,.137E-5,0
IRIDIUM 146,2018-030F,2026-07-13T06:24:23.402592,14.34217435,.00023591,86.3959,279.5140,96.8751,263.2714,0,U,43254,999,43387,.15189298E-4,.62E-6,0
IRIDIUM 148,2018-030G,2026-07-13T07:19:11.711424,14.34217625,.00023488,86.3961,279.5414,94.0252,266.1213,0,U,43255,999,43391,.46108075E-4,.149E-5,0
IRIDIUM 142,2018-030H,2026-07-13T04:53:03.467904,14.34218017,.00024052,86.3955,279.4720,97.6467,262.5002,0,U,43256,999,43386,.32705505E-4,.111E-5,0
IRIDIUM 150,2018-030J,2026-07-13T07:28:19.150464,14.34216194,.00021185,86.3959,279.5438,96.3708,263.7729,0,U,43257,999,43390,-.79981514E-4,-.204E-5,0
IRIDIUM 143,2018-030K,2026-07-12T17:37:11.482752,14.34217359,.00023148,86.3963,279.8786,96.3911,263.7548,0,U,43258,999,43375,.18596427E-4,.72E-6,0
IRIDIUM 161,2018-047C,2026-07-11T03:46:43.203072,14.43284936,.00023067,86.4467,78.4474,78.8180,281.3280,0,U,43478,999,42859,.45078032E-4,.172E-5,0
IRIDIUM 152,2018-047D,2026-07-13T04:41:10.497696,14.34219718,.00021328,86.3938,77.4561,83.5824,276.5614,0,U,43479,999,42621,.46182226E-4,.149E-5,0
IRIDIUM 147,2018-047E,2026-07-13T04:50:18.164832,14.34217516,.00022655,86.3940,77.4591,88.2952,271.8503,0,U,43480,999,42621,.45839199E-4,.148E-5,0
IRIDIUM 110,2018-047F,2026-07-12T23:58:02.313696,14.34217966,.00021563,86.3943,77.6367,76.5156,283.6280,0,U,43481,999,42617,.45155031E-4,.146E-5,0
IRIDIUM 162,2018-047G,2026-07-10T02:40:06.655296,14.43283456,.00021871,86.4467,78.7759,84.2783,275.8667,0,U,43482,999,42843,.50126108E-4,.189E-5,0
IRIDIUM 160,2018-061A,2026-07-13T00:20:30.323040,14.34216471,.00022215,86.3942,45.9944,85.9208,274.2242,0,U,43569,999,41707,.36776511E-4,.123E-5,0
IRIDIUM 166,2018-061B,2026-07-11T12:06:46.347840,14.34217869,.00022602,86.3940,46.5761,89.6407,270.5047,0,U,43570,999,41688,.3931712E-5,.31E-6,0
IRIDIUM 158,2018-061C,2026-07-13T00:11:22.485696,14.34217395,.00020617,86.3940,45.9570,86.4900,273.6532,0,U,43571,999,41706,.1389145E-4,.59E-6,0
IRIDIUM 165,2018-061D,2026-07-12T13:04:38.438976,14.34217303,.00022661,86.3942,46.1976,90.8182,269.3273,0,U,43572,999,41702,.25565263E-4,.91E-6,0
IRIDIUM 155,2018-061E,2026-07-12T23:53:06.448992,14.34217272,.00021015,86.3939,45.8772,89.0391,271.1045,0,U,43573,999,41705,.2137746E-4,.8E-6,0
